INTELSAT 701 (IS-701)   
1 22871U 93066A   16292.29828782 -.00000231  00000-0  00000+0 0  9996
2 22871   3.7355  68.2656 0004149 154.5947 242.2652  1.00271673 83978
INTELSAT 702 (IS-702)   
1 23124U 94034A   16291.45866533  .00000049  00000-0  00000+0 0  9993
2 23124   4.0746  66.4058 0003465 206.6814 153.3818  0.98936297 95982
INTELSAT 26 (IS-26)     
1 24732U 97007A   16291.94190794 -.00000007  00000-0  00000-0 0  9991
2 24732   7.0809  51.8060 0004690 182.6824 195.7289  1.00271120 37357
GALAXY 25 (G-25)        
1 24812U 97026A   16291.18602086 -.00000178  00000-0  00000+0 0  9997
2 24812   0.0098 256.0549 0003156 307.3297 156.6325  1.00272643 70968
INTELSAT 5 (IS-5)       
1 24916U 97046A   16291.69111611 -.00000153  00000-0  00000+0 0  9992
2 24916   3.0710  72.2607 0003955 148.5566 211.6211  1.00272369 70221
INTELSAT 805 (IS-805)   
1 25371U 98037A   16291.74189821 -.00000046  00000-0  00000+0 0  9994
2 25371   0.0484  65.4025 0003215 140.6013 256.7701  1.00272020 67177
AFRISTAR                
1 25515U 98063A   16292.14910414  .00000111  00000-0  00000+0 0  9990
2 25515   2.8298  70.3275 0004457 144.3659 247.0879  1.00274566 65745
INTELSAT 8 (IS-8)       
1 25522U 98065A   16292.28316459 -.00000048  00000-0  00000+0 0  9994
2 25522   0.5110  89.0587 0002968 116.0358  92.9643  1.00271470 65737
GALAXY 11 (G-11)        
1 26038U 99071A   16291.96388964  .00000124  00000-0  00000+0 0  9993
2 26038   0.0389 325.0970 0003263   3.2998  91.3345  1.00175407 61728
SIRIUS-1                
1 26390U 00035A   16288.59395833  .00000001  00000-0  00000+0 0  9998
2 26390  59.5779 231.4163 1263575 263.4021  84.3263  1.27816116 59688
INTELSAT 9 (IS-9)       
1 26451U 00043A   16292.34880956 -.00000286  00000-0  00000+0 0  9994
2 26451   3.0580  72.4787 0003513 158.7776 238.4951  1.00269203 59463
INTELSAT 12 (IS-12)     
1 26590U 00068A   16292.14030028  .00000120  00000-0  00000+0 0  9996
2 26590   0.0473  97.5227 0002674 125.0486 260.0311  1.00274711 58419
INTELSAT 1R (IS-1R)     
1 26608U 00072A   16291.56495201 -.00000298  00000-0  00000-0 0  9992
2 26608   0.0286 299.2483 0000633 162.2218  78.3486  1.00271055  5935
INTELSAT 10 (IS-10)     
1 26766U 01019A   16291.80278641  .00000111  00000-0  00000-0 0  9996
2 26766   1.0088  86.1683 0003935 150.1462 126.9336  1.00271968 10248
INTELSAT 901 (IS-901)   
1 26824U 01024A   16292.27578400 -.00000157  00000-0  00000+0 0  9995
2 26824   0.0272 285.7542 0002991 290.5683 252.1765  1.00272202 56210
INTELSAT 902 (IS-902)   
1 26900U 01039A   16291.73093993  .00000017  00000-0  00000+0 0  9999
2 26900   0.0181 261.1788 0002742 304.5109 146.1293  1.00272192 55379
DIRECTV 4S              
1 26985U 01052A   16292.19355488 -.00000130  00000-0  00000+0 0  9995
2 26985   0.0170 222.4234 0002422   4.3790 128.7891  1.00269889 54617
INTELSAT 904 (IS-904)   
1 27380U 02007A   16291.94424331  .00000033  00000-0  00000+0 0  9993
2 27380   0.0049 190.0274 0003334  18.8942 217.8854  1.00271480 53706
INTELSAT 903 (IS-903)   
1 27403U 02016A   16291.15994075 -.00000253  00000-0  00000-0 0  9995
2 27403   0.0184 123.9061 0003096  80.6552 204.6305  1.00272614 10270
DIRECTV 5 (TEMPO 1)     
1 27426U 02023A   16291.23313137 -.00000071  00000-0  00000+0 0  9998
2 27426   0.0206 214.2799 0003703   6.0337 139.6589  1.00270160 52912
INTELSAT 905 (IS-905)   
1 27438U 02027A   16292.29840978 -.00000201  00000-0  00000+0 0  9995
2 27438   0.0124 135.0351 0002597  62.2122 272.9156  1.00271376 52577
GALAXY 3C (G-3C)        
1 27445U 02030A   16291.19145684 -.00000166  00000-0  00000+0 0  9997
2 27445   0.0229 280.2427 0001516  43.0595  36.7191  1.00269847 52563
INTELSAT 906 (IS-906)   
1 27513U 02041A   16292.13916213 -.00000002  00000-0  00000+0 0  9993
2 27513   0.0214 256.7526 0002934 313.8445 290.7233  1.00272033 51589
INTELSAT 907 (IS-907)   
1 27683U 03007A   16291.00430423 -.00000217  00000-0  00000+0 0  9991
2 27683   0.0129 234.7881 0003194 337.0286 148.1957  1.00271277 49992
GALAXY 12 (G-12)        
1 27715U 03013B   16291.94726051  .00000043  00000-0  00000-0 0  9999
2 27715   0.0570  95.6855 0002567 124.2071  19.0019  1.00272018 16751
GALAXY 23 (G-23)        
1 27854U 03034A   16292.42685546 -.00000005  00000-0  00000+0 0  9991
2 27854   0.0198 256.2525 0002929 314.0446 209.7632  1.00273910 53164
GALAXY 13 (HORIZONS-1)  
1 27954U 03044A   16291.66682786  .00000032  00000-0  00000+0 0  9990
2 27954   0.0477  88.7105 0002281 165.6923 245.2490  1.00273094 47767
DIRECTV 7S              
1 28238U 04016A   16292.46961249 -.00000017  00000-0  00000+0 0  9993
2 28238   0.0250 323.6451 0003208 256.0435 217.7134  1.00272742 45687
INTELSAT 10-02          
1 28358U 04022A   16291.84300845 -.00000027  00000-0  00000-0 0  9995
2 28358   0.0099 205.6085 0000816 336.6530 147.0335  1.00270936 45250
XM-3 (RHYTHM)           
1 28626U 05008A   16292.10197301 -.00000222  00000-0  00000+0 0  9995
2 28626   0.0013 257.7792 0000595 309.2552 131.6121  1.00271875 42679
SPACEWAY 1              
1 28644U 05015A   16291.47189605 -.00000118  00000-0  00000+0 0  9994
2 28644   0.0132 234.8249 0000429  17.6613 200.8732  1.00270168 42129
DIRECTV 8               
1 28659U 05019A   16292.20475651 -.00000132  00000-0  00000+0 0  9991
2 28659   0.0108 281.1131 0003662 304.5890 134.2979  1.00271745 41809
GALAXY 28 (G-28)        
1 28702U 05022A   16292.17688303 -.00000202  00000-0  00000+0 0  9998
2 28702   0.0122 241.8103 0000322 186.4445 293.5380  1.00272361 41449
GALAXY 14 (G-14)        
1 28790U 05030A   16290.45990928  .00000023  00000-0  00000-0 0  9993
2 28790   0.0542  66.3118 0002770 139.5750 220.1034  1.00270433 40916
GALAXY 15 (G-15)        
1 28884U 05041A   16291.52650652  .00000063  00000-0  00000+0 0  9998
2 28884   0.0516  82.0869 0001555 156.4453 204.4797  1.00273314 40234
SPACEWAY 2              
1 28903U 05046B   16291.52164168 -.00000142  00000-0  00000+0 0  9996
2 28903   0.0260  83.5173 0000283 198.9833 192.7007  1.00271215 40103
GALAXY 16 (G-16)        
1 29236U 06023A   16291.52705325 -.00000143  00000-0  00000+0 0  9999
2 29236   0.0167 225.9028 0002899 339.0424 272.2678  1.00271556 37875
DIRECTV 9S              
1 29494U 06043A   16291.46316696 -.00000129  00000-0  00000+0 0  9993
2 29494   0.0095 177.7632 0003530  28.7853 245.5045  1.00271273 36716
XM-4 (BLUES)            
1 29520U 06049A   16291.61133814 -.00000039  00000-0  00000+0 0  9995
2 29520   0.0186  41.2905 0000285 163.6909 286.4299  1.00271973 36600
GALAXY 17 (G-17)        
1 31307U 07016B   16291.30981178 -.00000190  00000-0  00000+0 0  9994
2 31307   0.0476  43.9430 0004012 173.3434 189.5190  1.00271958 34685
DIRECTV 10              
1 31862U 07032A   16291.21303623 -.00000118  00000-0  00000+0 0  9991
2 31862   0.0113  27.1392 0000223 179.1032 153.7879  1.00272184 34014
SPACEWAY 3              
1 32018U 07036A   16291.46191873 -.00000167  00000-0  00000+0 0  9992
2 32018   0.0300  77.8647 0000140 104.6331 275.2536  1.00270883 33736
INTELSAT 11 (IS-11)     
1 32253U 07044B   16292.34880956 -.00000286  00000-0  00000+0 0  9999
2 32253   0.0181 228.9290 0003118 343.2619 257.6678  1.00271627 33148
HORIZONS-2              
1 32388U 07063B   16291.88562317 -.00000199  00000-0  00000-0 0  9999
2 32388   0.0058 171.8824 0002909  41.0133 217.6122  1.00271897 32463
DIRECTV 11              
1 32729U 08013A   16291.52163929 -.00000142  00000-0  00000+0 0  9998
2 32729   0.0200  40.3461 0000119 151.9415 282.7885  1.00271161 31544
GALAXY 18 (G-18)        
1 32951U 08024A   16290.27145839  .00000011  00000-0  00000-0 0  9993
2 32951   0.0184 188.1126 0002873   3.5748 168.3059  1.00272498 10498
INTELSAT 25 (IS-25)     
1 33153U 08034A   16292.01269792 -.00000240  00000-0  00000+0 0  9992
2 33153   0.0158 257.0207 0002850 300.0533 162.9467  1.00272583 30256
GALAXY 19 (G-19)        
1 33376U 08045A   16292.19408944 -.00000156  00000-0  00000+0 0  9990
2 33376   0.0233 222.4092 0003390 350.1795 147.3904  1.00270176 29450
SIRIUS FM-5             
1 35493U 09034A   16292.54243116 -.00000218  00000-0  00000+0 0  9997
2 35493   0.0187 273.5717 0000402 124.1917  98.8658  1.00272455 26597
INTELSAT 14 (IS-14)     
1 36097U 09064A   16291.05278067 -.00000288  00000-0  00000-0 0  9997
2 36097   0.0220 236.2586 0002767 338.1579 145.5656  1.00268811 25322
INTELSAT 15 (IS-15)     
1 36106U 09067A   16292.07100088 -.00000202  00000-0  00000+0 0  9996
2 36106   0.0188 262.7006 0002520 307.7209 287.3110  1.00271531 25217
DIRECTV 12              
1 36131U 09075A   16291.47189605 -.00000119  00000-0  00000+0 0  9995
2 36131   0.0159  42.9271 0000244 170.5679 239.9801  1.00272193 24992
INTELSAT 16 (IS-16)     
1 36397U 10006A   16291.50204971 -.00000300  00000-0  00000+0 0  9995
2 36397   0.0234 274.4820 0001952 306.8138 287.7965  1.00271575 24347
XM-5                    
1 37185U 10053A   16291.35330043 -.00000220  00000-0  00000+0 0  9997
2 37185   0.0176 237.4170 0000199 256.0307 294.8114  1.00270680 22058
INTELSAT 17 (IS-17)     
1 37238U 10065B   16291.90759900 -.00000019  00000-0  00000-0 0  9994
2 37238   0.0196 235.6028 0002577 341.9268 202.0616  1.00274543 18036
INTELSAT NEW DAWN       
1 37392U 11016A   16291.86996512  .00000139  00000-0  00000-0 0  9991
2 37392   0.0102 199.9180 0001608  30.9940 141.9115  1.00273081 17907
INTELSAT 18 (IS-18)     
1 37834U 11056A   16291.60495740  .00000037  00000-0  00000+0 0  9991
2 37834   0.0172 264.2883 0002378 314.2695 205.7677  1.00274093 18469
INTELSAT 22 (IS-22)     
1 38098U 12011A   16291.72566496 -.00000075  00000-0  00000-0 0  9990
2 38098   0.0302 325.2848 0002524 254.1468 140.5808  1.00271933 16447
INTELSAT 19 (IS-19)     
1 38356U 12030A   16291.46553662 -.00000072  00000-0  00000+0 0  9996
2 38356   0.0078 274.2679 0002895 297.4431 148.2716  1.00270659 16122
INTELSAT 20 (IS-20)     
1 38740U 12043A   16291.73568005 -.00000041  00000-0  00000-0 0  9991
2 38740   0.0138 214.2719 0001914 319.7724 185.9887  1.00272102 15377
INTELSAT 21 (IS-21)     
1 38749U 12045A   16291.08907293 -.00000300  00000-0  00000+0 0  9993
2 38749   0.0157 201.8254 0002488 356.6427 161.5229  1.00270944 15248
INTELSAT 23 (IS-23)     
1 38867U 12057A   16292.07220269 -.00000301  00000-0  00000+0 0  9999
2 38867   0.0303 262.2288 0001723 310.0243 147.7666  1.00270243 14726
SIRIUS FM-6             
1 39360U 13058A   16291.24991711 -.00000032  00000-0  00000+0 0  9996
2 39360   0.0099 252.5244 0000389 192.6620 274.8495  1.00271038 10957
INTELSAT 30 (IS-30)     
1 40271U 14062A   16292.34325282 -.00000168  00000-0  00000+0 0  9991
2 40271   0.0162 225.2160 0001267 230.0264 320.5239  1.00269199  7385
INTELSAT 34 (IS-34)     
1 40874U 15039A   16291.08191011 -.00000300  00000-0  00000-0 0  9995
2 40874   0.0184 235.4230 0000406 269.9224 214.6889  1.00271754  4280
INTELSAT 29E (IS-29E)   
1 41308U 16004A   16291.06664396 -.00000297  00000-0  00000-0 0  9995
2 41308   0.0190 233.3813 0002382 333.8208 152.8172  1.00270684  2784
INTELSAT 31 (IS-31)     
1 41581U 16035A   16292.18872089 -.00000168  00000-0  00000+0 0  9992
2 41581   0.0187 239.2652 0001801 332.1474 148.6067  1.00270715  1321
INTELSAT 36 (IS-36)     
1 41747U 16053A   16291.98862578 -.00000042  00000-0  00000+0 0  9996
2 41747   0.0591 354.8986 0002123 331.3842 125.0596  1.00272911   589
INTELSAT 33E (IS-33E)   
1 41748U 16053B   16292.21813329 -.00000184  00000-0  00000+0 0  9991
2 41748   0.1073 262.1301 0561559  60.8367  43.3722  1.08294057   820
